LANDSAT 9               
1 49260U 21088A   23242.66902510  .00000455  00000+0  11102-3 0  9993
2 49260  98.2246 311.6519 0001469  97.9119 262.2246 14.57104076102233
